LEMUR-1                 
1 40044U 14033AL  26167.41812866  .00001885  00000+0  22123-3 0  9995
2 40044  97.7877 317.2400 0049705  81.1102 279.5736 14.85244656645351
LEMUR-2-GREENBERG       
1 42837U 17042N   26167.43356610  .00013785  00000+0  45759-3 0  9994
2 42837  97.3813 348.0613 0008609  16.7822 343.3703 15.31308978488278
LEMUR-2-ANDIS           
1 42838U 17042P   26167.46458320  .00017504  00000+0  51974-3 0  9998
2 42838  97.3671 348.2738 0008233  15.0070 345.1416 15.34819017488344
LEMUR-2-MONSON          
1 42839U 17042Q   26167.44070136  .00011905  00000+0  43816-3 0  9997
2 42839  97.4072 348.0418 0006258   8.9145 351.2204 15.27993959488054
LEMUR-2-FURIAUS         
1 42840U 17042R   26167.49222126  .00013621  00000+0  46750-3 0  9999
2 42840  97.3765 346.0766 0008213  71.3832 288.8300 15.30232251488101
LEMUR-2-PETERG          
1 42841U 17042S   26167.44827659  .00016753  00000+0  51334-3 0  9990
2 42841  97.3984 352.4769 0003299   0.2045 359.9198 15.33859865488323
LEMUR-2-DEMBITZ         
1 42842U 17042T   26167.25056215  .00013635  00000+0  46762-3 0  9997
2 42842  97.3819 348.8597 0006834  31.9119 328.2534 15.30268456488207
LEMUR-2-ZACHARY         
1 42845U 17042W   26167.47998537  .00035409  00000+0  62694-3 0  9991
2 42845  97.3587 359.1014 0002941  35.6103 324.5344 15.50207783489094
LEMUR-2-AMANDA-SVANTE   
1 48269U 21034B   26167.18353418  .00027427  00000+0  82769-3 0  9990
2 48269  97.5763 245.4426 0002161 211.4452 148.6661 15.34247275280905
LEMUR-2-SPECIAL-K       
1 48273U 21034F   26167.50972447  .00127630  00000+0  13211-2 0  9992
2 48273  97.5655 254.3179 0004225 229.4235 130.6656 15.64291428281587
LEMUR-2-EMBRIONOVIS     
1 56970U 23084AQ  26167.35567201  .00011035  00000+0  30169-3 0  9996
2 56970  97.6292 311.5224 0007789 323.5171  36.5541 15.37531041167553
LEMUR-2-DEVERILL-M-T    
1 57391U 23100F   26167.58496279  .00021777  00000+0  55232-3 0  9996
2 57391  99.4462 206.1688 0006350  52.2915 307.8899 15.39728292161156
LEMUR-2-BASS            
1 58259U 23174D   26167.23754552  .00015031  00000+0  34170-3 0  9998
2 58259  97.3850 251.9360 0007661 165.2276 194.9197 15.43068810145217
LEMUR-2-JK0903EM1407    
1 58336U 23174CJ  26167.24089852  .00023198  00000+0  39143-3 0  9997
2 58336  97.3927 257.6838 0005762 122.3828 237.7982 15.51639695145580
LEMUR-2-MJR092620       
1 58340U 23174CN  26167.51103472  .00015426  00000+0  33023-3 0  9993
2 58340  97.3982 257.5275 0007099 119.6055 240.5902 15.44853975145547
LEMUR-2-NIMBUS2000      
1 58899U 24022A   26167.55897977  .00013146  00000+0  33108-3 0  9990
2 58899  97.4103  17.5524 0010313 117.7998 242.4294 15.39979321132179
LEMUR-2-VALHALLA        
1 58900U 24022B   26167.55506686  .00012340  00000+0  31420-3 0  9997
2 58900  97.4101  17.5394 0010843 113.9825 246.2557 15.39656475132176
LEMUR-2-CAEL            
1 58903U 24022E   26167.56542649  .00013300  00000+0  32446-3 0  9996
2 58903  97.4083  18.4847 0009267  99.3313 260.8982 15.40957067132243
LEMUR-2-JOHNNYTRUONG    
1 59146U 24043BA  26167.38052272  .00033577  00000+0  40940-3 0  9993
2 59146  97.5377 319.0331 0004779 178.7042 181.4227 15.60412144127914
LEMUR-2-TOMATOKECHUP    
1 60471U 24149D   26167.19529799  .00009181  00000+0  26406-3 0  9990
2 60471  97.3806 249.2392 0001325 177.5329 182.5921 15.36017182102015
LEMUR-2-STELLA          
1 60533U 24149BT  26167.48608207  .00009602  00000+0  56590-3 0  9998
2 60533  97.6744 249.9376 0001748  95.7986 264.3444 15.11800011100398
LEMUR-2-MARHISYAM       
1 60536U 24149BW  26167.59856615  .00008457  00000+0  50656-3 0  9995
2 60536  97.6882 250.4990 0003284 119.2400 240.9159 15.11250851100397
LEMUR-2-AHMED-ASRAR     
1 60576U 24149DN  26167.50097713  .00009609  00000+0  55235-3 0  9994
2 60576  97.7012 252.4911 0001917  45.6523 314.4865 15.12701956100468
LEMUR-2-LLOYD           
1 60577U 24149DP  26167.11407229  .00009047  00000+0  57243-3 0  9996
2 60577  97.6748 248.2419 0004754 143.9486 216.2064 15.09220950100233
LEMUR-2-SQUIRRELCOMM    
1 60578U 24149DQ  26167.45872347  .00004657  00000+0  31386-3 0  9993
2 60578  97.6708 248.3720 0006429  63.6602 296.5285 15.07143179100292
LEMUR-2-SIERRINI        
1 60579U 24149DR  26167.22461774  .00009039  00000+0  54572-3 0  9998
2 60579  97.6849 249.8122 0005786 166.6457 193.4927 15.10932402100318
LEMUR-2-WILSON          
1 62694U 25009CP  26167.22499363  .00002278  00000+0  21265-3 0  9990
2 62694  97.7026 245.7062 0004254  60.5332 299.6313 14.95161350 77215
LEMUR-2-STAR-FOX        
1 62696U 25009CR  26167.16041708  .00006531  00000+0  49627-3 0  9999
2 62696  97.6957 248.7762 0003751 114.0474 246.1144 15.02492808 77406
LEMUR-2-ARIANNA         
1 62699U 25009CU  26167.15874357  .00006504  00000+0  49445-3 0  9993
2 62699  97.6898 248.5503 0004113 119.8587 240.3047 15.02474103 77401
LEMUR-2-ALISIA          
1 62706U 25009DB  26167.20343038  .00005921  00000+0  44728-3 0  9996
2 62706  97.6958 249.3799 0001900 191.2572 168.8611 15.02758586100017
